[
  {
    "name": "Blackpool Tower",
    "lat": 53.8158,
    "lng": -3.0553,
    "address": "The Promenade, Blackpool FY1 4BJ",
    "phone": "01253 622242",
    "website": "https://www.theblackpooltower.com/",
    "image": "../assets/images/attractions/blackpool-tower.jpg",
    "description": "Historic landmark offering panoramic views, circus, ballroom, and attractions.",
    "opening_hours": "10:00-19:00 (varies by season) :contentReference[oaicite:0]{index=0}",
    "entry_price": "From ~£11.50 online for Tower attractions :contentReference[oaicite:1]{index=1}"
  },
  {
    "name": "Blackpool Pleasure Beach",
    "lat": 53.7925,
    "lng": -3.0534,
    "address": "525 Ocean Boulevard, Blackpool FY4 1EZ",
    "phone": "0333 003 2212",
    "website": "https://www.blackpoolpleasurebeach.com/",
    "image": "../assets/images/attractions/pleasure-beach.jpg",
    "description": "Famous amusement park with rides and shows for all ages.",
    "opening_hours": "Open daily from March to end November (times vary) :contentReference[oaicite:2]{index=2}",
    "entry_price": "From ~£35 for individual eTicket when booked early :contentReference[oaicite:3]{index=3}"
  },
  {
    "name": "Sandcastle Waterpark",
    "lat": 53.7920,
    "lng": -3.0560,
    "address": "South Beach, Blackpool FY4 1BB",
    "phone": "01253 343602",
    "website": "https://www.sandcastle-waterpark.co.uk/",
    "image": "../assets/images/attractions/sandcastle.jpg",
    "description": "Indoor tropical waterpark perfect for family fun and relaxation.",
    "opening_hours": "Session times vary; entry is for a 3-hour session. :contentReference[oaicite:4]{index=4}",
    "entry_price": "Varies; check online booking section."
  },
  {
    "name": "SEA LIFE Blackpool",
    "lat": 53.8144,
    "lng": -3.0559,
    "address": "Promenade, Blackpool FY1 5AA",
    "phone": "01253 621258",
    "website": "https://www.visitsealife.com/blackpool/",
    "image": "../assets/images/attractions/sea-life.jpg",
    "description": "Aquarium featuring marine creatures and underwater tunnels.",
    "opening_hours": "10:00-18:00 (Last entry ~17:00) :contentReference[oaicite:5]{index=5}",
    "entry_price": "Save ~10% by booking online with timed-entry. :contentReference[oaicite:6]{index=6}"
  },
  {
    "name": "Stanley Park",
    "lat": 53.8170,
    "lng": -3.0305,
    "address": "West Park Drive, Blackpool FY3 9HU",
    "phone": "01253 478358",
    "website": "https://www.visitblackpool.com/",
    "image": "../assets/images/attractions/stanley-park.jpg",
    "description": "Beautiful park with boating lake, gardens, and sports facilities.",
    "opening_hours": "Open daily dawn to dusk. :contentReference[oaicite:7]{index=7}",
    "entry_price": "Free"
  },
  {
    "name": "Madame Tussauds Blackpool",
    "lat": 53.8159,
    "lng": -3.0558,
    "address": "89 The Promenade, Blackpool FY1 5AA",
    "phone": "01253 375183",
    "website": "https://www.madametussauds.com/blackpool/",
    "image": "../assets/images/attractions/madame-tussauds.jpg",
    "description": "Wax museum where you can meet celebrity figures in themed zones.",
    "opening_hours": "10:00-18:00 (Last admission usually 1 hr before close) :contentReference[oaicite:8]{index=8}",
    "entry_price": "Varies; check website for current offers. :contentReference[oaicite:9]{index=9}"
  },
  {
    "name": "Blackpool Zoo",
    "lat": 53.8046,
    "lng": -3.0445,
    "address": "East Park Drive, Blackpool FY3 8PP",
    "phone": "01253 830801",
    "website": "https://www.blackpoolzoo.org.uk/",
    "image": "../assets/images/attractions/blackpool-zoo.jpg",
    "description": "Award-winning zoo with more than 1,000 animals in scenic grounds.",
    "opening_hours": "Opens daily from 10:00; closing time varies by season. :contentReference[oaicite:10]{index=10}",
    "entry_price": "Varies; check online for current rates."
  },
  {
    "name": "Central Pier",
    "lat": 53.8150,
    "lng": -3.0560,
    "address": "Promenade, Blackpool FY1 5BB",
    "phone": "01253 623422",
    "website": "http://www.centralpierblackpool.co.uk/",
    "image": "../assets/images/attractions/central-pier.jpg",
    "description": "Classic Victorian pier offering amusements, rides and seaside fun.",
    "opening_hours": "Open seasonally (March-Nov) though some sections may vary. :contentReference[oaicite:11]{index=11}",
    "entry_price": "Free entry to pier itself; rides & arcades extra."
  },
  {
    "name": "North Pier",
    "lat": 53.8200,
    "lng": -3.0550,
    "address": "Promenade, Blackpool FY1 1NE",
    "phone": "01253 623422",
    "website": "https://www.blackpoolpiers.co.uk/north-pier/",
    "image": "../assets/images/attractions/north-pier.jpg",
    "description": "The oldest of Blackpool’s three piers, featuring Victorian entertainment and views.",
    "opening_hours": "Seasonal (March-Nov) – check locally. :contentReference[oaicite:12]{index=12}",
    "entry_price": "Free (rides/games extra)."
  },
  {
    "name": "Coral Island",
    "lat": 53.8148,
    "lng": -3.0559,
    "address": "Central Promenade, Blackpool FY1 5DW",
    "phone": "01253 293133",
    "website": "https://www.coralisland.co.uk/",
    "image": "../assets/images/attractions/coral-island.jpg",
    "description": "Large free-admission indoor amusement arcade with rides, games and eateries.",
    "opening_hours": "Daily (check for seasonal variation) :contentReference[oaicite:13]{index=13}",
    "entry_price": "Free admission; pay-as-you-play for games/rides."
  },
  {
    "name": "South Pier",
    "lat": 53.7890,
    "lng": -3.0530,
    "address": "Promenade, Blackpool FY4 1BB",
    "phone": "01253 623422",
    "website": "https://www.blackpoolpiers.co.uk/south-pier/",
    "image": "../assets/images/attractions/south-pier.jpg",
    "description": "Seaside pier with thrill rides, family amusements and beachfront views.",
    "opening_hours": "Seasonal (March-Nov) :contentReference[oaicite:14]{index=14}",
    "entry_price": "Free entry; rides/games cost extra."
  },
  {
    "name": "The Blackpool Tower Ballroom",
    "lat": 53.8159,
    "lng": -3.0553,
    "address": "The Promenade, Blackpool FY1 4BJ",
    "phone": "01253 622242",
    "website": "https://www.theblackpooltower.com/",
    "image": "../assets/images/attractions/tower-ballroom.jpg",
    "description": "Historic dance hall inside the Tower known for its ornate interior and tea dances.",
    "opening_hours": "Times vary by event; part of Tower complex. :contentReference[oaicite:15]{index=15}",
    "entry_price": "From ~£9 for general admission. :contentReference[oaicite:16]{index=16}"
  }
]
